SL-3 R/B                
1 12904U 81103B   17346.51848629  .00000841  00000-0  56575-4 0  9998
2 12904  81.1786  71.8875 0028024 196.4168 163.6151 15.05413421519651
